{
  "norad_id": 46558,
  "name": "STARLINK-1680",
  "history": [
    {
      "epoch": "2026-03-28T22:00:01.999584Z",
      "apogee_km": 324.73529580828836,
      "perigee_km": 317.1255571558495,
      "latitude_deg": -38.00504276265195,
      "longitude_deg": 72.51341831673902,
      "height_km": 335.5916696762125,
      "semi_major_axis_km": 6699.067426482068,
      "eccentricity": 0.00056797,
      "inclination_deg": 53.0392,
      "raan_deg": 13.0702,
      "arg_perigee_deg": 102.2209,
      "mean_anomaly_deg": 127.8084,
      "mean_motion_rev_day": 15.83365721
    },
    {
      "epoch": "2026-03-29T06:00:02.998944Z",
      "apogee_km": 324.26958305913104,
      "perigee_km": 316.81261459951475,
      "latitude_deg": -22.751517653503328,
      "longitude_deg": 76.43298675854074,
      "height_km": 329.4424903658987,
      "semi_major_axis_km": 6698.678098829323,
      "eccentricity": 0.0005566,
      "inclination_deg": 53.0423,
      "raan_deg": 11.3898,
      "arg_perigee_deg": 101.9261,
      "mean_anomaly_deg": 229.4336,
      "mean_motion_rev_day": 15.83503761
    },
    {
      "epoch": "2026-03-30T06:00:01.999296Z",
      "apogee_km": 322.4890011818188,
      "perigee_km": 315.44230976772724,
      "latitude_deg": -52.72159619571978,
      "longitude_deg": 9.26798123648769,
      "height_km": 340.68929215847027,
      "semi_major_axis_km": 6697.102655474772,
      "eccentricity": 0.0005261,
      "inclination_deg": 53.0387,
      "raan_deg": 6.3425,
      "arg_perigee_deg": 108.3778,
      "mean_anomaly_deg": 168.032,
      "mean_motion_rev_day": 15.84062555
    },
    {
      "epoch": "2026-03-30T06:00:02.000160Z",
      "apogee_km": 322.4890011818188,
      "perigee_km": 315.44230976772724,
      "latitude_deg": -52.72159619571985,
      "longitude_deg": 9.267977626632451,
      "height_km": 340.6892921584683,
      "semi_major_axis_km": 6697.102655474772,
      "eccentricity": 0.0005261,
      "inclination_deg": 53.0387,
      "raan_deg": 6.3425,
      "arg_perigee_deg": 108.3778,
      "mean_anomaly_deg": 168.032,
      "mean_motion_rev_day": 15.84062555
    },
    {
      "epoch": "2026-03-30T14:00:03.000384Z",
      "apogee_km": 321.94765597198693,
      "perigee_km": 314.93620390076467,
      "latitude_deg": 14.746445140065253,
      "longitude_deg": -21.97120746597179,
      "height_km": 318.9513241536803,
      "semi_major_axis_km": 6696.578929936375,
      "eccentricity": 0.00052351,
      "inclination_deg": 53.0421,
      "raan_deg": 4.6572,
      "arg_perigee_deg": 113.9741,
      "mean_anomaly_deg": 264.6451,
      "mean_motion_rev_day": 15.84248388
    },
    {
      "epoch": "2026-03-30T22:00:00.999936Z",
      "apogee_km": 321.2914128043976,
      "perigee_km": 314.1700896162747,
      "latitude_deg": 43.463648236835546,
      "longitude_deg": -20.49744428307147,
      "height_km": 318.5029261706079,
      "semi_major_axis_km": 6695.867751210336,
      "eccentricity": 0.00053177,
      "inclination_deg": 53.039,
      "raan_deg": 2.9742,
      "arg_perigee_deg": 114.8256,
      "mean_anomaly_deg": 6.0023,
      "mean_motion_rev_day": 15.84500793
    },
    {
      "epoch": "2026-03-31T20:00:01.999008Z",
      "apogee_km": 319.84622451733776,
      "perigee_km": 313.0538964857533,
      "latitude_deg": -35.64691676192861,
      "longitude_deg": -163.32615453658002,
      "height_km": 331.14823011518314,
      "semi_major_axis_km": 6694.587060501545,
      "eccentricity": 0.0005073,
      "inclination_deg": 53.0389,
      "raan_deg": 358.3413,
      "arg_perigee_deg": 122.2332,
      "mean_anomaly_deg": 191.2612,
      "mean_motion_rev_day": 15.84955493
    },
    {
      "epoch": "2026-04-01T20:00:01.999008Z",
      "apogee_km": 318.2652249926032,
      "perigee_km": 311.7715256474685,
      "latitude_deg": -52.72140392162852,
      "longitude_deg": 122.4987863916418,
      "height_km": 335.6048880631652,
      "semi_major_axis_km": 6693.155375320036,
      "eccentricity": 0.0004851,
      "inclination_deg": 53.0391,
      "raan_deg": 353.2839,
      "arg_perigee_deg": 128.1887,
      "mean_anomaly_deg": 135.3452,
      "mean_motion_rev_day": 15.8546406
    },
    {
      "epoch": "2026-04-02T20:00:01.999008Z",
      "apogee_km": 316.19791029238695,
      "perigee_km": 310.0165388777159,
      "latitude_deg": -27.9855191295166,
      "longitude_deg": 60.46679485920079,
      "height_km": 320.7906964613264,
      "semi_major_axis_km": 6691.244224585052,
      "eccentricity": 0.0004619,
      "inclination_deg": 53.0382,
      "raan_deg": 348.2222,
      "arg_perigee_deg": 138.3659,
      "mean_anomaly_deg": 77.2627,
      "mean_motion_rev_day": 15.86143368
    },
    {
      "epoch": "2026-04-03T00:00:02.999808Z",
      "apogee_km": 315.82915534759377,
      "perigee_km": 309.81077337728857,
      "latitude_deg": 53.14405528462119,
      "longitude_deg": -117.41273993503202,
      "height_km": 317.3564768477884,
      "semi_major_axis_km": 6690.956964362441,
      "eccentricity": 0.00044974,
      "inclination_deg": 53.0379,
      "raan_deg": 347.3791,
      "arg_perigee_deg": 137.3492,
      "mean_anomaly_deg": 310.6231,
      "mean_motion_rev_day": 15.86245515
    },
    {
      "epoch": "2026-04-03T20:00:01.999008Z",
      "apogee_km": 314.191384271855,
      "perigee_km": 308.30071355898144,
      "latitude_deg": 7.710333825543863,
      "longitude_deg": 25.17034499209388,
      "height_km": 308.845225524926,
      "semi_major_axis_km": 6689.383048915418,
      "eccentricity": 0.0004403,
      "inclination_deg": 53.0374,
      "raan_deg": 343.1552,
      "arg_perigee_deg": 143.761,
      "mean_anomaly_deg": 26.5093,
      "mean_motion_rev_day": 15.86805379
    }
  ]
}